[
  {
    "OBJECT_NAME": "STARLINK-30095",
    "OBJECT_ID": "23056D",
    "EPOCH": "2025-11-10T16:52:23.913120",
    "MEAN_MOTION": 15.0253735,
    "ECCENTRICITY": 0.0001228,
    "INCLINATION": 43.0035,
    "RA_OF_ASC_NODE": 110.8032,
    "ARG_OF_PERICENTER": 269.5187,
    "MEAN_ANOMALY": 90.5515,
    "EPHEMERIS_TYPE": 0,
    "CLASSIFICATION_TYPE": "U",
    "NORAD_CAT_ID": 56289,
    "ELEMENT_SET_NO": 999,
    "REV_AT_EPOCH": 14242,
    "BSTAR": 2.5118000000000002e-05,
    "MEAN_MOTION_DOT": 1.36e-06,
    "MEAN_MOTION_DDOT": 0.0,
    "TLE_LINE1": "1 56289U 23056D   25314.70305455  .00000136  00000+0  25118-4 0  9990",
    "TLE_LINE2": "2 56289  43.0035 110.8032 0001228 269.5187  90.5515 15.02537350142422",
    "COMMENT": "Grouped by shell and plane from TLE"
  },
  {
    "OBJECT_NAME": "STARLINK-6301",
    "OBJECT_ID": "23061U",
    "EPOCH": "2025-11-10T20:42:21.753792",
    "MEAN_MOTION": 15.02507532,
    "ECCENTRICITY": 0.0001521,
    "INCLINATION": 43.0004,
    "RA_OF_ASC_NODE": 110.6848,
    "ARG_OF_PERICENTER": 139.3711,
    "MEAN_ANOMALY": 220.7245,
    "EPHEMERIS_TYPE": 0,
    "CLASSIFICATION_TYPE": "U",
    "NORAD_CAT_ID": 56392,
    "ELEMENT_SET_NO": 999,
    "REV_AT_EPOCH": 13902,
    "BSTAR": 0.0,
    "MEAN_MOTION_DOT": -3.708e-05,
    "MEAN_MOTION_DDOT": 0.0,
    "TLE_LINE1": "1 56392U 23061U   25314.86275178 -.00003708  00000+0 -25972-3 0  9993",
    "TLE_LINE2": "2 56392  43.0004 110.6848 0001521 139.3711 220.7245 15.02507532139027",
    "COMMENT": "Grouped by shell and plane from TLE"
  },
  {
    "OBJECT_NAME": "STARLINK-6273",
    "OBJECT_ID": "23061X",
    "EPOCH": "2025-11-10T17:19:38.913024",
    "MEAN_MOTION": 15.02537163,
    "ECCENTRICITY": 0.0001277,
    "INCLINATION": 43.0039,
    "RA_OF_ASC_NODE": 111.3488,
    "ARG_OF_PERICENTER": 270.7065,
    "MEAN_ANOMALY": 89.3631,
    "EPHEMERIS_TYPE": 0,
    "CLASSIFICATION_TYPE": "U",
    "NORAD_CAT_ID": 56395,
    "ELEMENT_SET_NO": 999,
    "REV_AT_EPOCH": 13971,
    "BSTAR": 6.172400000000001e-05,
    "MEAN_MOTION_DOT": 6.3e-06,
    "MEAN_MOTION_DDOT": 0.0,
    "TLE_LINE1": "1 56395U 23061X   25314.72197816  .00000630  00000+0  61724-4 0  9998",
    "TLE_LINE2": "2 56395  43.0039 111.3488 0001277 270.7065  89.3631 15.02537163139713",
    "COMMENT": "Grouped by shell and plane from TLE"
  },
  {
    "OBJECT_NAME": "STARLINK-6302",
    "OBJECT_ID": "23061Y",
    "EPOCH": "2025-11-10T20:18:18.588672",
    "MEAN_MOTION": 15.02540041,
    "ECCENTRICITY": 0.0001396,
    "INCLINATION": 43.0031,
    "RA_OF_ASC_NODE": 110.5626,
    "ARG_OF_PERICENTER": 268.6243,
    "MEAN_ANOMALY": 91.444,
    "EPHEMERIS_TYPE": 0,
    "CLASSIFICATION_TYPE": "U",
    "NORAD_CAT_ID": 56396,
    "ELEMENT_SET_NO": 999,
    "REV_AT_EPOCH": 13415,
    "BSTAR": 6.7765e-05,
    "MEAN_MOTION_DOT": 7.12e-06,
    "MEAN_MOTION_DDOT": 0.0,
    "TLE_LINE1": "1 56396U 23061Y   25314.84604848  .00000712  00000+0  67765-4 0  9992",
    "TLE_LINE2": "2 56396  43.0031 110.5626 0001396 268.6243  91.4440 15.02540041134151",
    "COMMENT": "Grouped by shell and plane from TLE"
  },
  {
    "OBJECT_NAME": "STARLINK-6271",
    "OBJECT_ID": "23061Z",
    "EPOCH": "2025-11-10T17:22:52.134528",
    "MEAN_MOTION": 15.02522774,
    "ECCENTRICITY": 0.000224,
    "INCLINATION": 43.0075,
    "RA_OF_ASC_NODE": 111.3689,
    "ARG_OF_PERICENTER": 275.3573,
    "MEAN_ANOMALY": 84.7014,
    "EPHEMERIS_TYPE": 0,
    "CLASSIFICATION_TYPE": "U",
    "NORAD_CAT_ID": 56397,
    "ELEMENT_SET_NO": 999,
    "REV_AT_EPOCH": 13900,
    "BSTAR": 0.0,
    "MEAN_MOTION_DOT": -5.48e-06,
    "MEAN_MOTION_DDOT": 0.0,
    "TLE_LINE1": "1 56397U 23061Z   25314.72421452 -.00000548  00000+0 -25502-4 0  9990",
    "TLE_LINE2": "2 56397  43.0075 111.3689 0002240 275.3573  84.7014 15.02522774139002",
    "COMMENT": "Grouped by shell and plane from TLE"
  },
  {
    "OBJECT_NAME": "STARLINK-6288",
    "OBJECT_ID": "23061AA",
    "EPOCH": "2025-11-10T17:02:04.156512",
    "MEAN_MOTION": 15.02543792,
    "ECCENTRICITY": 0.000102,
    "INCLINATION": 43.0037,
    "RA_OF_ASC_NODE": 111.2602,
    "ARG_OF_PERICENTER": 268.4233,
    "MEAN_ANOMALY": 91.6493,
    "EPHEMERIS_TYPE": 0,
    "CLASSIFICATION_TYPE": "U",
    "NORAD_CAT_ID": 56398,
    "ELEMENT_SET_NO": 999,
    "REV_AT_EPOCH": 13900,
    "BSTAR": 0.00023859,
    "MEAN_MOTION_DOT": 3.021e-05,
    "MEAN_MOTION_DDOT": 0.0,
    "TLE_LINE1": "1 56398U 23061AA  25314.70977033  .00003021  00000+0  23859-3 0  9999",
    "TLE_LINE2": "2 56398  43.0037 111.2602 0001020 268.4233  91.6493 15.02543792139007",
    "COMMENT": "Grouped by shell and plane from TLE"
  },
  {
    "OBJECT_NAME": "STARLINK-6267",
    "OBJECT_ID": "23061AC",
    "EPOCH": "2025-11-10T16:54:06.649632",
    "MEAN_MOTION": 15.02518481,
    "ECCENTRICITY": 0.0002054,
    "INCLINATION": 43.0064,
    "RA_OF_ASC_NODE": 111.2156,
    "ARG_OF_PERICENTER": 264.9635,
    "MEAN_ANOMALY": 95.0973,
    "EPHEMERIS_TYPE": 0,
    "CLASSIFICATION_TYPE": "U",
    "NORAD_CAT_ID": 56400,
    "ELEMENT_SET_NO": 999,
    "REV_AT_EPOCH": 13900,
    "BSTAR": 0.0,
    "MEAN_MOTION_DOT": -1.375e-05,
    "MEAN_MOTION_DDOT": 0.0,
    "TLE_LINE1": "1 56400U 23061AC  25314.70424363 -.00001375  00000+0 -86752-4 0  9990",
    "TLE_LINE2": "2 56400  43.0064 111.2156 0002054 264.9635  95.0973 15.02518481139008",
    "COMMENT": "Grouped by shell and plane from TLE"
  },
  {
    "OBJECT_NAME": "STARLINK-6284",
    "OBJECT_ID": "23061AF",
    "EPOCH": "2025-11-10T20:08:44.029536",
    "MEAN_MOTION": 15.02547483,
    "ECCENTRICITY": 0.0001382,
    "INCLINATION": 43.0029,
    "RA_OF_ASC_NODE": 110.4984,
    "ARG_OF_PERICENTER": 274.2572,
    "MEAN_ANOMALY": 85.8112,
    "EPHEMERIS_TYPE": 0,
    "CLASSIFICATION_TYPE": "U",
    "NORAD_CAT_ID": 56403,
    "ELEMENT_SET_NO": 999,
    "REV_AT_EPOCH": 13902,
    "BSTAR": 9.265400000000001e-05,
    "MEAN_MOTION_DOT": 1.049e-05,
    "MEAN_MOTION_DDOT": 0.0,
    "TLE_LINE1": "1 56403U 23061AF  25314.83939849  .00001049  00000+0  92654-4 0  9991",
    "TLE_LINE2": "2 56403  43.0029 110.4984 0001382 274.2572  85.8112 15.02547483139027",
    "COMMENT": "Grouped by shell and plane from TLE"
  },
  {
    "OBJECT_NAME": "STARLINK-6285",
    "OBJECT_ID": "23061AH",
    "EPOCH": "2025-11-10T16:49:17.071392",
    "MEAN_MOTION": 15.02534962,
    "ECCENTRICITY": 0.0001388,
    "INCLINATION": 43.0038,
    "RA_OF_ASC_NODE": 111.1935,
    "ARG_OF_PERICENTER": 266.0281,
    "MEAN_ANOMALY": 94.0403,
    "EPHEMERIS_TYPE": 0,
    "CLASSIFICATION_TYPE": "U",
    "NORAD_CAT_ID": 56405,
    "ELEMENT_SET_NO": 999,
    "REV_AT_EPOCH": 13900,
    "BSTAR": 4.4656e-05,
    "MEAN_MOTION_DOT": 4e-06,
    "MEAN_MOTION_DDOT": 0.0,
    "TLE_LINE1": "1 56405U 23061AH  25314.70089203  .00000400  00000+0  44656-4 0  9998",
    "TLE_LINE2": "2 56405  43.0038 111.1935 0001388 266.0281  94.0403 15.02534962139006",
    "COMMENT": "Grouped by shell and plane from TLE"
  },
  {
    "OBJECT_NAME": "STARLINK-6283",
    "OBJECT_ID": "23061AJ",
    "EPOCH": "2025-11-10T18:04:13.512288",
    "MEAN_MOTION": 15.02542716,
    "ECCENTRICITY": 0.0001219,
    "INCLINATION": 43.0028,
    "RA_OF_ASC_NODE": 110.7175,
    "ARG_OF_PERICENTER": 271.2985,
    "MEAN_ANOMALY": 88.7718,
    "EPHEMERIS_TYPE": 0,
    "CLASSIFICATION_TYPE": "U",
    "NORAD_CAT_ID": 56406,
    "ELEMENT_SET_NO": 999,
    "REV_AT_EPOCH": 13901,
    "BSTAR": 9.130000000000001e-05,
    "MEAN_MOTION_DOT": 1.03e-05,
    "MEAN_MOTION_DDOT": 0.0,
    "TLE_LINE1": "1 56406U 23061AJ  25314.75293417  .00001030  00000+0  91300-4 0  9996",
    "TLE_LINE2": "2 56406  43.0028 110.7175 0001219 271.2985  88.7718 15.02542716139015",
    "COMMENT": "Grouped by shell and plane from TLE"
  },
  {
    "OBJECT_NAME": "STARLINK-6278",
    "OBJECT_ID": "23061AQ",
    "EPOCH": "2025-11-10T17:43:27.259680",
    "MEAN_MOTION": 15.02537954,
    "ECCENTRICITY": 0.0001377,
    "INCLINATION": 43.0029,
    "RA_OF_ASC_NODE": 110.6068,
    "ARG_OF_PERICENTER": 276.0171,
    "MEAN_ANOMALY": 84.0515,
    "EPHEMERIS_TYPE": 0,
    "CLASSIFICATION_TYPE": "U",
    "NORAD_CAT_ID": 56412,
    "ELEMENT_SET_NO": 999,
    "REV_AT_EPOCH": 13901,
    "BSTAR": 6.2292e-05,
    "MEAN_MOTION_DOT": 6.38e-06,
    "MEAN_MOTION_DDOT": 0.0,
    "TLE_LINE1": "1 56412U 23061AQ  25314.73850995  .00000638  00000+0  62292-4 0  9992",
    "TLE_LINE2": "2 56412  43.0029 110.6068 0001377 276.0171  84.0515 15.02537954139010",
    "COMMENT": "Grouped by shell and plane from TLE"
  },
  {
    "OBJECT_NAME": "STARLINK-6261",
    "OBJECT_ID": "23061AV",
    "EPOCH": "2025-11-10T17:38:39.487200",
    "MEAN_MOTION": 15.02535475,
    "ECCENTRICITY": 0.0001459,
    "INCLINATION": 43.0041,
    "RA_OF_ASC_NODE": 110.5865,
    "ARG_OF_PERICENTER": 268.5499,
    "MEAN_ANOMALY": 91.5176,
    "EPHEMERIS_TYPE": 0,
    "CLASSIFICATION_TYPE": "U",
    "NORAD_CAT_ID": 56417,
    "ELEMENT_SET_NO": 999,
    "REV_AT_EPOCH": 13901,
    "BSTAR": 5.592200000000001e-05,
    "MEAN_MOTION_DOT": 5.52e-06,
    "MEAN_MOTION_DDOT": 0.0,
    "TLE_LINE1": "1 56417U 23061AV  25314.73517925  .00000552  00000+0  55922-4 0  9997",
    "TLE_LINE2": "2 56417  43.0041 110.5865 0001459 268.5499  91.5176 15.02535475139015",
    "COMMENT": "Grouped by shell and plane from TLE"
  },
  {
    "OBJECT_NAME": "STARLINK-5350",
    "OBJECT_ID": "23061AX",
    "EPOCH": "2025-11-10T17:33:51.953184",
    "MEAN_MOTION": 15.02536768,
    "ECCENTRICITY": 0.0001253,
    "INCLINATION": 43.0024,
    "RA_OF_ASC_NODE": 110.5615,
    "ARG_OF_PERICENTER": 265.8803,
    "MEAN_ANOMALY": 94.1896,
    "EPHEMERIS_TYPE": 0,
    "CLASSIFICATION_TYPE": "U",
    "NORAD_CAT_ID": 56419,
    "ELEMENT_SET_NO": 999,
    "REV_AT_EPOCH": 13901,
    "BSTAR": 0.0,
    "MEAN_MOTION_DOT": -2.21e-06,
    "MEAN_MOTION_DDOT": 0.0,
    "TLE_LINE1": "1 56419U 23061AX  25314.73185131 -.00000221  00000+0 -13192-5 0  9998",
    "TLE_LINE2": "2 56419  43.0024 110.5615 0001253 265.8803  94.1896 15.02536768139016",
    "COMMENT": "Grouped by shell and plane from TLE"
  }
]